{
  "type": "FeatureCollection",
  "features": [
    {
      "type": "Feature",
      "properties": {
        "norad_id": 37960,
        "name": "COSMOS 2251 DEB",
        "group": "cosmos-2251-debris",
        "lat": 10.455722461304843,
        "lon": 4.884188564271199,
        "alt_km": 723.5637857955753,
        "timestamp": "2025-12-12T03:50:52.816228+00:00",
        "meta_object_name": "COSMOS 2251 DEB",
        "meta_object_id": "1993-036BPK",
        "meta_epoch": "2025-12-11T06:34:06.593952",
        "meta_mean_motion": 14.07849479,
        "meta_eccentricity": 0.0248856,
        "meta_inclination": 74.0568,
        "meta_ra_of_asc_node": 189.4616,
        "meta_arg_of_pericenter": 208.4906,
        "meta_mean_anomaly": 150.2444,
        "meta_ephemeris_type": 0,
        "meta_classification_type": "U",
        "meta_norad_cat_id": 37960,
        "meta_element_set_no": 999,
        "meta_rev_at_epoch": 77385,
        "meta_bstar": 0.0011921558,
        "meta_mean_motion_dot": 2.659e-05,
        "meta_mean_motion_ddot": 0,
        "tle_line1": "1 37960U 93036BPK 25345.27368743  .00002659  00000+0  11922-2 0  9993",
        "tle_line2": "2 37960  74.0568 189.4616 0248856 208.4906 150.2444 14.07849479773857"
      },
      "geometry": {
        "type": "Point",
        "coordinates": [
          4.884188564271199,
          10.455722461304843
        ]
      }
    },
    {
      "type": "Feature",
      "properties": {
        "norad_id": 37961,
        "name": "COSMOS 2251 DEB",
        "group": "cosmos-2251-debris",
        "lat": -73.93370433380395,
        "lon": 54.69277908865307,
        "alt_km": 689.116576567737,
        "timestamp": "2025-12-12T03:50:52.816238+00:00",
        "meta_object_name": "COSMOS 2251 DEB",
        "meta_object_id": "1993-036BPL",
        "meta_epoch": "2025-12-11T10:08:14.598816",
        "meta_mean_motion": 14.5795188,
        "meta_eccentricity": 0.00408006,
        "meta_inclination": 74.0412,
        "meta_ra_of_asc_node": 139.6117,
        "meta_arg_of_pericenter": 220.729,
        "meta_mean_anomaly": 139.0823,
        "meta_ephemeris_type": 0,
        "meta_classification_type": "U",
        "meta_norad_cat_id": 37961,
        "meta_element_set_no": 999,
        "meta_rev_at_epoch": 80046,
        "meta_bstar": 0.0020723036,
        "meta_mean_motion_dot": 9.604e-05,
        "meta_mean_motion_ddot": 0,
        "tle_line1": "1 37961U 93036BPL 25345.42239119  .00009604  00000+0  20723-2 0  9991",
        "tle_line2": "2 37961  74.0412 139.6117 0040800 220.7290 139.0823 14.57951880800460"
      },
      "geometry": {
        "type": "Point",
        "coordinates": [
          54.69277908865307,
          -73.93370433380395
        ]
      }
    },
    {
      "type": "Feature",
      "properties": {
        "norad_id": 37966,
        "name": "COSMOS 2251 DEB",
        "group": "cosmos-2251-debris",
        "lat": -71.04191346310432,
        "lon": 108.53720829899697,
        "alt_km": 541.1667087897058,
        "timestamp": "2025-12-12T03:50:52.816249+00:00",
        "meta_object_name": "COSMOS 2251 DEB",
        "meta_object_id": "1993-036BPR",
        "meta_epoch": "2025-12-09T09:36:29.677536",
        "meta_mean_motion": 15.12084932,
        "meta_eccentricity": 0.0008975,
        "meta_inclination": 73.977,
        "meta_ra_of_asc_node": 237.4896,
        "meta_arg_of_pericenter": 112.4769,
        "meta_mean_anomaly": 247.7375,
        "meta_ephemeris_type": 0,
        "meta_classification_type": "U",
        "meta_norad_cat_id": 37966,
        "meta_element_set_no": 999,
        "meta_rev_at_epoch": 85292,
        "meta_bstar": 0.003976161,
        "meta_mean_motion_dot": 0.00069139,
        "meta_mean_motion_ddot": 0,
        "tle_line1": "1 37966U 93036BPR 25343.40034349  .00069139  00000+0  39762-2 0  9992",
        "tle_line2": "2 37966  73.9770 237.4896 0008975 112.4769 247.7375 15.12084932852920"
      },
      "geometry": {
        "type": "Point",
        "coordinates": [
          108.53720829899697,
          -71.04191346310432
        ]
      }
    },
    {
      "type": "Feature",
      "properties": {
        "norad_id": 37967,
        "name": "COSMOS 2251 DEB",
        "group": "cosmos-2251-debris",
        "lat": 70.29379118550808,
        "lon": -168.383123717244,
        "alt_km": 851.29772815667,
        "timestamp": "2025-12-12T03:50:52.816260+00:00",
        "meta_object_name": "COSMOS 2251 DEB",
        "meta_object_id": "1993-036BPS",
        "meta_epoch": "2025-12-10T16:28:42.146688",
        "meta_mean_motion": 14.4047963,
        "meta_eccentricity": 0.01508864,
        "meta_inclination": 74.015,
        "meta_ra_of_asc_node": 141.1866,
        "meta_arg_of_pericenter": 280.4085,
        "meta_mean_anomaly": 78.0095,
        "meta_ephemeris_type": 0,
        "meta_classification_type": "U",
        "meta_norad_cat_id": 37967,
        "meta_element_set_no": 999,
        "meta_rev_at_epoch": 64706,
        "meta_bstar": 0.0023977147,
        "meta_mean_motion_dot": 8.707e-05,
        "meta_mean_motion_ddot": 0,
        "tle_line1": "1 37967U 93036BPS 25344.68659892  .00008707  00000+0  23977-2 0  9995",
        "tle_line2": "2 37967  74.0150 141.1866 0150886 280.4085  78.0095 14.40479630647063"
      },
      "geometry": {
        "type": "Point",
        "coordinates": [
          -168.383123717244,
          70.29379118550808
        ]
      }
    },
    {
      "type": "Feature",
      "properties": {
        "norad_id": 37968,
        "name": "COSMOS 2251 DEB",
        "group": "cosmos-2251-debris",
        "lat": 68.31136439079133,
        "lon": 46.16499166609759,
        "alt_km": 544.6823810785727,
        "timestamp": "2025-12-12T03:50:52.816270+00:00",
        "meta_object_name": "COSMOS 2251 DEB",
        "meta_object_id": "1993-036BPT",
        "meta_epoch": "2025-12-11T12:59:17.342016",
        "meta_mean_motion": 15.00564337,
        "meta_eccentricity": 0.00805117,
        "meta_inclination": 74.0003,
        "meta_ra_of_asc_node": 273.6016,
        "meta_arg_of_pericenter": 29.6371,
        "meta_mean_anomaly": 330.9341,
        "meta_ephemeris_type": 0,
        "meta_classification_type": "U",
        "meta_norad_cat_id": 37968,
        "meta_element_set_no": 999,
        "meta_rev_at_epoch": 60201,
        "meta_bstar": 0.0016377655,
        "meta_mean_motion_dot": 0.00022176,
        "meta_mean_motion_ddot": 0,
        "tle_line1": "1 37968U 93036BPT 25345.54117294  .00022176  00000+0  16378-2 0  9990",
        "tle_line2": "2 37968  74.0003 273.6016 0080511  29.6371 330.9341 15.00564337602013"
      },
      "geometry": {
        "type": "Point",
        "coordinates": [
          46.16499166609759,
          68.31136439079133
        ]
      }
    },
    {
      "type": "Feature",
      "properties": {
        "norad_id": 37971,
        "name": "COSMOS 2251 DEB",
        "group": "cosmos-2251-debris",
        "lat": 47.89037286304543,
        "lon": -155.6875400931892,
        "alt_km": 696.0909776071367,
        "timestamp": "2025-12-12T03:50:52.816279+00:00",
        "meta_object_name": "COSMOS 2251 DEB",
        "meta_object_id": "1993-036BPW",
        "meta_epoch": "2025-12-11T10:40:32.065248",
        "meta_mean_motion": 14.48615122,
        "meta_eccentricity": 0.00674117,
        "meta_inclination": 73.9935,
        "meta_ra_of_asc_node": 44.173,
        "meta_arg_of_pericenter": 183.4136,
        "meta_mean_anomaly": 176.6574,
        "meta_ephemeris_type": 0,
        "meta_classification_type": "U",
        "meta_norad_cat_id": 37971,
        "meta_element_set_no": 999,
        "meta_rev_at_epoch": 60659,
        "meta_bstar": 0.0043286348,
        "meta_mean_motion_dot": 0.00016772,
        "meta_mean_motion_ddot": 0,
        "tle_line1": "1 37971U 93036BPW 25345.44481557  .00016772  00000+0  43286-2 0  9992",
        "tle_line2": "2 37971  73.9935  44.1730 0067411 183.4136 176.6574 14.48615122606595"
      },
      "geometry": {
        "type": "Point",
        "coordinates": [
          -155.6875400931892,
          47.89037286304543
        ]
      }
    },
    {
      "type": "Feature",
      "properties": {
        "norad_id": 37975,
        "name": "COSMOS 2251 DEB",
        "group": "cosmos-2251-debris",
        "lat": -37.62330381070919,
        "lon": -47.5681318921559,
        "alt_km": 580.9825027727939,
        "timestamp": "2025-12-12T03:50:52.816290+00:00",
        "meta_object_name": "COSMOS 2251 DEB",
        "meta_object_id": "1993-036BQA",
        "meta_epoch": "2025-12-11T15:00:34.783776",
        "meta_mean_motion": 14.75964152,
        "meta_eccentricity": 0.0096009,
        "meta_inclination": 74.0032,
        "meta_ra_of_asc_node": 326.255,
        "meta_arg_of_pericenter": 315.8702,
        "meta_mean_anomaly": 43.4838,
        "meta_ephemeris_type": 0,
        "meta_classification_type": "U",
        "meta_norad_cat_id": 37975,
        "meta_element_set_no": 999,
        "meta_rev_at_epoch": 69729,
        "meta_bstar": 0.0059326203,
        "meta_mean_motion_dot": 0.00044255,
        "meta_mean_motion_ddot": 0,
        "tle_line1": "1 37975U 93036BQA 25345.62540259  .00044255  00000+0  59326-2 0  9990",
        "tle_line2": "2 37975  74.0032 326.2550 0096009 315.8702  43.4838 14.75964152697299"
      },
      "geometry": {
        "type": "Point",
        "coordinates": [
          -47.5681318921559,
          -37.62330381070919
        ]
      }
    }
  ]
}